start=new Date('2022-12-05T00:00:00.000Z').valueOf();
sats=[{"TLE_LINE2":"2 53058  97.6515 157.5938 0000796 188.5020 171.6191 15.01256080 22233","SITE":"AFWTR","SEMIMAJOR_AXIS":"6941.159","MEAN_MOTION_DOT":"-0.00000349","CENTER_NAME":"EARTH","REF_FRAME":"TEME","BSTAR":"-0.00002258100000","RA_OF_ASC_NODE":"157.5938","ARG_OF_PERICENTER":"188.5020","PERIAPSIS":"562.471","COUNTRY_CODE":"US","RCS_SIZE":"LARGE","CLASSIFICATION_TYPE":"U","ECCENTRICITY":"0.00007960","OBJECT_TYPE":"PAYLOAD","LAUNCH_DATE":"2022-07-11","MEAN_ELEMENT_THEORY":"SGP4","MEAN_MOTION_DDOT":"0.0000000000000","APOAPSIS":"563.576","EPOCH":"2022-12-04T17:52:26.884704","TIME_SYSTEM":"UTC","INCLINATION":"97.6515","MEAN_MOTION":"15.01256080","REV_AT_EPOCH":"2223","MEAN_ANOMALY":"171.6191","GP_ID":"219556745","FILE":"3681494","ELEMENT_SET_NO":"999","PERIOD":"95.920","OBJECT_ID":"2022-077R","NORAD_CAT_ID":"53058","TLE_LINE1":"1 53058U 22077R   22338.74475561 -.00000349  00000-0 -22581-4 0  9996","DECAY_DATE":null,"OBJECT_NAME":"STARLINK-4317","EPHEMERIS_TYPE":"0"},{"FILE":"3681494","GP_ID":"219557498","REV_AT_EPOCH":"2223","MEAN_ANOMALY":"263.4062","MEAN_MOTION":"15.01253842","APOAPSIS":"563.507","EPOCH":"2022-12-04T17:41:48.635808","TIME_SYSTEM":"UTC","INCLINATION":"97.6537","EPHEMERIS_TYPE":"0","OBJECT_NAME":"STARLINK-4320","TLE_LINE1":"1 53059U 22077S   22338.73736847  .00002542  00000-0  20243-3 0  9990","DECAY_DATE":null,"NORAD_CAT_ID":"53059","OBJECT_ID":"2022-077S","ELEMENT_SET_NO":"999","PERIOD":"95.920","COUNTRY_CODE":"US","ARG_OF_PERICENTER":"96.7240","PERIAPSIS":"562.555","RA_OF_ASC_NODE":"157.5806","BSTAR":"0.00020243000000","REF_FRAME":"TEME","MEAN_MOTION_DOT":"0.00002542","CENTER_NAME":"EARTH","SITE":"AFWTR","TLE_LINE2":"2 53059  97.6537 157.5806 0000686  96.7240 263.4062 15.01253842 22234","SEMIMAJOR_AXIS":"6941.166","MEAN_MOTION_DDOT":"0.0000000000000","MEAN_ELEMENT_THEORY":"SGP4","LAUNCH_DATE":"2022-07-11","OBJECT_TYPE":"PAYLOAD","CLASSIFICATION_TYPE":"U","RCS_SIZE":"LARGE","ECCENTRICITY":"0.00006860"},{"LAUNCH_DATE":"2022-07-11","MEAN_MOTION_DDOT":"0.0000000000000","MEAN_ELEMENT_THEORY":"SGP4","OBJECT_TYPE":"PAYLOAD","ECCENTRICITY":"0.00011300","RCS_SIZE":"LARGE","CLASSIFICATION_TYPE":"U","RA_OF_ASC_NODE":"157.5884","BSTAR":"-0.00000387200000","COUNTRY_CODE":"US","PERIAPSIS":"562.249","ARG_OF_PERICENTER":"206.2700","SEMIMAJOR_AXIS":"6941.168","TLE_LINE2":"2 53060  97.6531 157.5884 0001130 206.2700 153.8467 15.01253023 22232","SITE":"AFWTR","REF_FRAME":"TEME","CENTER_NAME":"EARTH","MEAN_MOTION_DOT":"-0.00000109","OBJECT_NAME":"STARLINK-4305","DECAY_DATE":null,"TLE_LINE1":"1 53060U 22077T   22338.74266257 -.00000109  00000-0 -38720-5 0  9996","EPHEMERIS_TYPE":"0","OBJECT_ID":"2022-077T","PERIOD":"95.920","ELEMENT_SET_NO":"999","NORAD_CAT_ID":"53060","MEAN_ANOMALY":"153.8467","REV_AT_EPOCH":"2223","FILE":"3681494","GP_ID":"219557739","TIME_SYSTEM":"UTC","INCLINATION":"97.6531","APOAPSIS":"563.818","EPOCH":"2022-12-04T17:49:26.046048","MEAN_MOTION":"15.01253023"},{"REV_AT_EPOCH":"2219","MEAN_ANOMALY":"326.3722","FILE":"3681207","GP_ID":"219524207","APOAPSIS":"563.741","EPOCH":"2022-12-04T11:14:51.395424","INCLINATION":"97.6534","TIME_SYSTEM":"UTC","MEAN_MOTION":"15.01276630","OBJECT_NAME":"STARLINK-4308","TLE_LINE1":"1 53061U 22077U   22338.46865041 -.00004535  00000-0 -34860-3 0  9998","DECAY_DATE":null,"EPHEMERIS_TYPE":"0","OBJECT_ID":"2022-077U","ELEMENT_SET_NO":"999","PERIOD":"95.918","NORAD_CAT_ID":"53061","RA_OF_ASC_NODE":"157.3157","BSTAR":"-0.00034860000000","COUNTRY_CODE":"US","ARG_OF_PERICENTER":"33.7574","PERIAPSIS":"562.180","TLE_LINE2":"2 53061  97.6534 157.3157 0001125  33.7574 326.3722 15.01276630 22198","SITE":"AFWTR","SEMIMAJOR_AXIS":"6941.096","REF_FRAME":"TEME","MEAN_MOTION_DOT":"-0.00004535","CENTER_NAME":"EARTH","LAUNCH_DATE":"2022-07-11","MEAN_ELEMENT_THEORY":"SGP4","MEAN_MOTION_DDOT":"0.0000000000000","OBJECT_TYPE":"PAYLOAD","RCS_SIZE":"LARGE","CLASSIFICATION_TYPE":"U","ECCENTRICITY":"0.00011250"},{"RA_OF_ASC_NODE":"157.5841","BSTAR":"0.00047256000000","COUNTRY_CODE":"US","ARG_OF_PERICENTER":"167.4512","PERIAPSIS":"562.492","SITE":"AFWTR","TLE_LINE2":"2 53062  97.6529 157.5841 0000691 167.4512 192.6730 15.01272908 22231","SEMIMAJOR_AXIS":"6941.107","REF_FRAME":"TEME","MEAN_MOTION_DOT":"0.00006018","CENTER_NAME":"EARTH","LAUNCH_DATE":"2022-07-11","MEAN_ELEMENT_THEORY":"SGP4","MEAN_MOTION_DDOT":"0.0000000000000","OBJECT_TYPE":"PAYLOAD","CLASSIFICATION_TYPE":"U","RCS_SIZE":"LARGE","ECCENTRICITY":"0.00006910","REV_AT_EPOCH":"2223","MEAN_ANOMALY":"192.6730","FILE":"3681494","GP_ID":"219556247","APOAPSIS":"563.452","EPOCH":"2022-12-04T17:44:06.043776","TIME_SYSTEM":"UTC","INCLINATION":"97.6529","MEAN_MOTION":"15.01272908","OBJECT_NAME":"STARLINK-4311","TLE_LINE1":"1 53062U 22077V   22338.73895884  .00006018  00000-0  47256-3 0  9996","DECAY_DATE":null,"EPHEMERIS_TYPE":"0","OBJECT_ID":"2022-077V","ELEMENT_SET_NO":"999","PERIOD":"95.919","NORAD_CAT_ID":"53062"},{"DECAY_DATE":null,"TLE_LINE1":"1 53063U 22077W   22338.74262929 -.00000663  00000-0 -48081-4 0  9996","OBJECT_NAME":"STARLINK-4307","EPHEMERIS_TYPE":"0","PERIOD":"95.971","ELEMENT_SET_NO":"999","OBJECT_ID":"2022-077W","NORAD_CAT_ID":"53063","MEAN_ANOMALY":"145.0456","REV_AT_EPOCH":"2224","GP_ID":"219556999","FILE":"3681494","INCLINATION":"97.6506","TIME_SYSTEM":"UTC","APOAPSIS":"567.396","EPOCH":"2022-12-04T17:49:23.170656","MEAN_MOTION":"15.00447190","LAUNCH_DATE":"2022-07-11","MEAN_MOTION_DDOT":"0.0000000000000","MEAN_ELEMENT_THEORY":"SGP4","ECCENTRICITY":"0.00027040","CLASSIFICATION_TYPE":"U","RCS_SIZE":"LARGE","OBJECT_TYPE":"PAYLOAD","BSTAR":"-0.00004808100000","RA_OF_ASC_NODE":"157.6619","PERIAPSIS":"563.641","ARG_OF_PERICENTER":"215.0590","COUNTRY_CODE":"US","SEMIMAJOR_AXIS":"6943.653","SITE":"AFWTR","TLE_LINE2":"2 53063  97.6506 157.6619 0002704 215.0590 145.0456 15.00447190 22248","CENTER_NAME":"EARTH","MEAN_MOTION_DOT":"-0.00000663","REF_FRAME":"TEME"},{"MEAN_ANOMALY":"249.1187","REV_AT_EPOCH":"2278","FILE":"3681252","GP_ID":"219525714","INCLINATION":"97.6529","TIME_SYSTEM":"UTC","APOAPSIS":"563.480","EPOCH":"2022-12-04T12:53:30.140160","MEAN_MOTION":"15.01255358","OBJECT_NAME":"STARLINK-4313","DECAY_DATE":null,"TLE_LINE1":"1 53064U 22077X   22338.53715440  .00000351  00000-0  31911-4 0  9991","EPHEMERIS_TYPE":"0","OBJECT_ID":"2022-077X","PERIOD":"95.920","ELEMENT_SET_NO":"999","NORAD_CAT_ID":"53064","RA_OF_ASC_NODE":"157.3840","BSTAR":"0.00003191100000","COUNTRY_CODE":"US","PERIAPSIS":"562.572","ARG_OF_PERICENTER":"111.0107","SEMIMAJOR_AXIS":"6941.161","SITE":"AFWTR","TLE_LINE2":"2 53064  97.6529 157.3840 0000654 111.0107 249.1187 15.01255358 22788","REF_FRAME":"TEME","CENTER_NAME":"EARTH","MEAN_MOTION_DOT":"0.00000351","LAUNCH_DATE":"2022-07-11","MEAN_ELEMENT_THEORY":"SGP4","MEAN_MOTION_DDOT":"0.0000000000000","OBJECT_TYPE":"PAYLOAD","ECCENTRICITY":"0.00006540","CLASSIFICATION_TYPE":"U","RCS_SIZE":"LARGE"},{"EPHEMERIS_TYPE":"0","DECAY_DATE":null,"TLE_LINE1":"1 53065U 22077Y   22338.46494900 -.00000601  00000-0 -42215-4 0  9998","OBJECT_NAME":"STARLINK-4312","NORAD_CAT_ID":"53065","PERIOD":"95.920","ELEMENT_SET_NO":"999","OBJECT_ID":"2022-077Y","GP_ID":"219526363","FILE":"3681268","MEAN_ANOMALY":"297.6997","REV_AT_EPOCH":"2277","MEAN_MOTION":"15.01255510","TIME_SYSTEM":"UTC","INCLINATION":"97.6551","APOAPSIS":"564.091","EPOCH":"2022-12-04T11:09:31.593600","MEAN_ELEMENT_THEORY":"SGP4","MEAN_MOTION_DDOT":"0.0000000000000","LAUNCH_DATE":"2022-07-11","ECCENTRICITY":"0.00015350","CLASSIFICATION_TYPE":"U","RCS_SIZE":"LARGE","OBJECT_TYPE":"PAYLOAD","PERIAPSIS":"561.960","ARG_OF_PERICENTER":"62.4383","COUNTRY_CODE":"US","BSTAR":"-0.00004221500000","RA_OF_ASC_NODE":"157.3130","CENTER_NAME":"EARTH","MEAN_MOTION_DOT":"-0.00000601","REF_FRAME":"TEME","SEMIMAJOR_AXIS":"6941.161","TLE_LINE2":"2 53065  97.6551 157.3130 0001535  62.4383 297.6997 15.01255510 22776","SITE":"AFWTR"},{"MEAN_MOTION_DDOT":"0.0000000000000","MEAN_ELEMENT_THEORY":"SGP4","LAUNCH_DATE":"2022-07-11","RCS_SIZE":"LARGE","CLASSIFICATION_TYPE":"U","ECCENTRICITY":"0.00009080","OBJECT_TYPE":"PAYLOAD","ARG_OF_PERICENTER":"65.9675","PERIAPSIS":"562.379","COUNTRY_CODE":"US","BSTAR":"0.00007242800000","RA_OF_ASC_NODE":"157.3789","MEAN_MOTION_DOT":"0.00000871","CENTER_NAME":"EARTH","REF_FRAME":"TEME","SITE":"AFWTR","TLE_LINE2":"2 53066  97.6533 157.3789 0000908  65.9675 294.1644 15.01260774 22782","SEMIMAJOR_AXIS":"6941.144","EPHEMERIS_TYPE":"0","TLE_LINE1":"1 53066U 22077Z   22338.53345395  .00000871  00000-0  72428-4 0  9996","DECAY_DATE":null,"OBJECT_NAME":"STARLINK-4309","NORAD_CAT_ID":"53066","ELEMENT_SET_NO":"999","PERIOD":"95.919","OBJECT_ID":"2022-077Z","GP_ID":"219526483","FILE":"3681276","REV_AT_EPOCH":"2278","MEAN_ANOMALY":"294.1644","MEAN_MOTION":"15.01260774","APOAPSIS":"563.640","EPOCH":"2022-12-04T12:48:10.421280","TIME_SYSTEM":"UTC","INCLINATION":"97.6533"},{"REF_FRAME":"TEME","MEAN_MOTION_DOT":"0.00001468","CENTER_NAME":"EARTH","SITE":"AFWTR","TLE_LINE2":"2 53067  97.6561 157.3101 0001644  60.7049 299.4340 15.01266418 22195","SEMIMAJOR_AXIS":"6941.127","COUNTRY_CODE":"US","ARG_OF_PERICENTER":"60.7049","PERIAPSIS":"561.851","RA_OF_ASC_NODE":"157.3101","BSTAR":"0.00011886000000","OBJECT_TYPE":"PAYLOAD","CLASSIFICATION_TYPE":"U","RCS_SIZE":"LARGE","ECCENTRICITY":"0.00016440","MEAN_MOTION_DDOT":"0.0000000000000","MEAN_ELEMENT_THEORY":"SGP4","LAUNCH_DATE":"2022-07-11","MEAN_MOTION":"15.01266418","APOAPSIS":"564.133","EPOCH":"2022-12-04T11:04:11.256096","INCLINATION":"97.6561","TIME_SYSTEM":"UTC","FILE":"3681207","GP_ID":"219523063","REV_AT_EPOCH":"2219","MEAN_ANOMALY":"299.4340","NORAD_CAT_ID":"53067","OBJECT_ID":"2022-077AA","ELEMENT_SET_NO":"999","PERIOD":"95.919","EPHEMERIS_TYPE":"0","OBJECT_NAME":"STARLINK-4306","TLE_LINE1":"1 53067U 22077AA  22338.46124139  .00001468  00000-0  11886-3 0  9993","DECAY_DATE":null}];
